GLOBALSTAR M063 [+]     
1 26081U 00008A   24008.51584722 -.00000065  00000+0  26005-3 0  9990
2 26081  51.9965  55.9746 0004305  33.2152 114.8335 11.86149167 95191
GLOBALSTAR M062 [-]     
1 26082U 00008B   24008.03940296 -.00000045  00000+0  37796-3 0  9997
2 26082  51.9817 202.9714 0008242  72.2006 101.4637 12.43425065431168
GLOBALSTAR M060 [-]     
1 26083U 00008C   24008.54739000  .00000033  00000+0  12368-2 0  9996
2 26083  52.0026  87.1218 0004244 137.4757 329.0535 12.17621013 88334
GLOBALSTAR M064 [-]     
1 26084U 00008D   24008.60116393 -.00000068  00000+0  22067-3 0  9995
2 26084  52.0010 160.7751 0002684 117.8880 242.2225 11.88514583104604
GLOBALSTAR M065 [+]     
1 31571U 07020A   24008.25009812 -.00000083  00000+0  11408-3 0  9995
2 31571  51.9909  26.9813 0009882 220.7722 220.8780 12.61961632767004
GLOBALSTAR M069 [+]     
1 31573U 07020C   24008.38044444 -.00000084  00000+0  11268-3 0  9996
2 31573  51.9979 342.6216 0000729  10.6732 154.5905 12.62263642768141
GLOBALSTAR M072 [+]     
1 31574U 07020D   24008.52178493 -.00000135  00000+0 -17559-3 0  9992
2 31574  52.0096  77.9836 0000848 161.9506 304.6150 12.62269216766434
GLOBALSTAR M071 [P]     
1 31576U 07020F   24008.32374368 -.00000087  00000+0  93306-4 0  9991
2 31576  52.0093 347.8332 0000990  28.6385 118.3793 12.62264273429320
